{"type": "FeatureCollection", "features": [ {"type": "Feature", "properties": {"norad_id": 38755, "name": "SPOT 6", "group": "resource", "lat": 38.968009285093395, "lon": 42.64541456377731, "alt_km": 694.3407257078061, "timestamp": "2025-12-10T11:33:53.048172+00:00", "meta": {"OBJECT_NAME": "SPOT 6", "OBJECT_ID": "2012-047A", "EPOCH": "2025-12-10T04:47:56.199264", "MEAN_MOTION": 14.58599104, "ECCENTRICITY": 0.000108, "INCLINATION": 98.1571, "RA_OF_ASC_NODE": 49.031, "ARG_OF_PERICENTER": 97.9485, "MEAN_ANOMALY": 262.1837, "EPHEMERIS_TYPE": 0, "CLASSIFICATION_TYPE": "U", "NORAD_CAT_ID": 38755, "ELEMENT_SET_NO": 999, "REV_AT_EPOCH": 70550, "BSTAR": 0.00011957, "MEAN_MOTION_DOT": 5.11e-06, "MEAN_MOTION_DDOT": 0}, "tle": {"line1": "1 38755U 12047A   25344.19995601  .00000511  00000+0  11957-3 0  9992", "line2": "2 38755  98.1571  49.0310 0001080  97.9485 262.1837 14.58599104705501"}}, "geometry": {"type": "Point", "coordinates": [42.64541456377731, 38.968009285093395]}}, {"type": "Feature", "properties": {"norad_id": 39019, "name": "PLEIADES 1B", "group": "resource", "lat": -60.50634972644355, "lon": 71.8999961263418, "alt_km": 705.6925041876057, "timestamp": "2025-12-10T11:33:53.048181+00:00", "meta": {"OBJECT_NAME": "PLEIADES 1B", "OBJECT_ID": "2012-068A", "EPOCH": "2025-12-10T05:15:38.899872", "MEAN_MOTION": 14.58548734, "ECCENTRICITY": 0.0001217, "INCLINATION": 98.1793, "RA_OF_ASC_NODE": 56.9105, "ARG_OF_PERICENTER": 82.0189, "MEAN_ANOMALY": 278.1148, "EPHEMERIS_TYPE": 0, "CLASSIFICATION_TYPE": "U", "NORAD_CAT_ID": 39019, "ELEMENT_SET_NO": 999, "REV_AT_EPOCH": 69330, "BSTAR": 0.00012875, "MEAN_MOTION_DOT": 5.53e-06, "MEAN_MOTION_DDOT": 0}, "tle": {"line1": "1 39019U 12068A   25344.21920023  .00000553  00000+0  12875-3 0  9994", "line2": "2 39019  98.1793  56.9105 0001217  82.0189 278.1148 14.58548734693307"}}, "geometry": {"type": "Point", "coordinates": [71.8999961263418, -60.50634972644355]}}, {"type": "Feature", "properties": {"norad_id": 39030, "name": "GOKTURK 2", "group": "resource", "lat": 17.79688798999501, "lon": -176.23948588212352, "alt_km": 644.5822395913028, "timestamp": "2025-12-10T11:33:53.048192+00:00", "meta": {"OBJECT_NAME": "GOKTURK 2", "OBJECT_ID": "2012-073A", "EPOCH": "2025-12-10T03:20:40.469856", "MEAN_MOTION": 14.75285962, "ECCENTRICITY": 9.49e-05, "INCLINATION": 97.6891, "RA_OF_ASC_NODE": 185.9206, "ARG_OF_PERICENTER": 100.4638, "MEAN_ANOMALY": 259.6678, "EPHEMERIS_TYPE": 0, "CLASSIFICATION_TYPE": "U", "NORAD_CAT_ID": 39030, "ELEMENT_SET_NO": 999, "REV_AT_EPOCH": 69663, "BSTAR": 0.00017455, "MEAN_MOTION_DOT": 1.135e-05, "MEAN_MOTION_DDOT": 0}, "tle": {"line1": "1 39030U 12073A   25344.13935729  .00001135  00000+0  17455-3 0  9999", "line2": "2 39030  97.6891 185.9206 0000949 100.4638 259.6678 14.75285962696634"}}, "geometry": {"type": "Point", "coordinates": [-176.23948588212352, 17.79688798999501]}}, {"type": "Feature", "properties": {"norad_id": 39084, "name": "LANDSAT 8", "group": "resource", "lat": 58.733365570713865, "lon": -113.6609243515224, "alt_km": 696.184705725208, "timestamp": "2025-12-10T11:33:53.048202+00:00", "meta": {"OBJECT_NAME": "LANDSAT 8", "OBJECT_ID": "2013-008A", "EPOCH": "2025-12-10T04:25:21.823104", "MEAN_MOTION": 14.57109886, "ECCENTRICITY": 0.0001108, "INCLINATION": 98.2075, "RA_OF_ASC_NODE": 52.2954, "ARG_OF_PERICENTER": 87.4605, "MEAN_ANOMALY": 272.672, "EPHEMERIS_TYPE": 0, "CLASSIFICATION_TYPE": "U", "NORAD_CAT_ID": 39084, "ELEMENT_SET_NO": 999, "REV_AT_EPOCH": 67037, "BSTAR": 0.00015024, "MEAN_MOTION_DOT": 6.32e-06, "MEAN_MOTION_DDOT": 0}, "tle": {"line1": "1 39084U 13008A   25344.18428036  .00000632  00000+0  15024-3 0  9991", "line2": "2 39084  98.2075  52.2954 0001108  87.4605 272.6720 14.57109886670372"}}, "geometry": {"type": "Point", "coordinates": [-113.6609243515224, 58.733365570713865]}}, {"type": "Feature", "properties": {"norad_id": 39086, "name": "SARAL", "group": "resource", "lat": -55.581451573808025, "lon": -178.874567104046, "alt_km": 791.5374848484744, "timestamp": "2025-12-10T11:33:53.048212+00:00", "meta": {"OBJECT_NAME": "SARAL", "OBJECT_ID": "2013-009A", "EPOCH": "2025-12-10T03:26:52.810656", "MEAN_MOTION": 14.32755586, "ECCENTRICITY": 0.0002818, "INCLINATION": 98.5504, "RA_OF_ASC_NODE": 168.108, "ARG_OF_PERICENTER": 113.5985, "MEAN_ANOMALY": 246.5495, "EPHEMERIS_TYPE": 0, "CLASSIFICATION_TYPE": "U", "NORAD_CAT_ID": 39086, "ELEMENT_SET_NO": 999, "REV_AT_EPOCH": 66853, "BSTAR": 8.9875e-05, "MEAN_MOTION_DOT": 2.01e-06, "MEAN_MOTION_DDOT": 0}, "tle": {"line1": "1 39086U 13009A   25344.14366679  .00000201  00000+0  89875-4 0  9992", "line2": "2 39086  98.5504 168.1080 0002818 113.5985 246.5495 14.32755586668533"}}, "geometry": {"type": "Point", "coordinates": [-178.874567104046, -55.581451573808025]}}, {"type": "Feature", "properties": {"norad_id": 39150, "name": "GAOFEN-1", "group": "resource", "lat": 81.02001358973558, "lon": -6.746626721114776, "alt_km": 627.3388282440455, "timestamp": "2025-12-10T11:33:53.048222+00:00", "meta": {"OBJECT_NAME": "GAOFEN-1", "OBJECT_ID": "2013-018A", "EPOCH": "2025-12-10T04:40:17.758272", "MEAN_MOTION": 14.76526652, "ECCENTRICITY": 0.0018016, "INCLINATION": 97.9326, "RA_OF_ASC_NODE": 54.8987, "ARG_OF_PERICENTER": 150.8446, "MEAN_ANOMALY": 209.3774, "EPHEMERIS_TYPE": 0, "CLASSIFICATION_TYPE": "U", "NORAD_CAT_ID": 39150, "ELEMENT_SET_NO": 999, "REV_AT_EPOCH": 68035, "BSTAR": 0.00015508, "MEAN_MOTION_DOT": 1.033e-05, "MEAN_MOTION_DDOT": 0}, "tle": {"line1": "1 39150U 13018A   25344.19464998  .00001033  00000+0  15508-3 0  9997", "line2": "2 39150  97.9326  54.8987 0018016 150.8446 209.3774 14.76526652680359"}}, "geometry": {"type": "Point", "coordinates": [-6.746626721114776, 81.02001358973558]}}, {"type": "Feature", "properties": {"norad_id": 39160, "name": "VNREDSAT 1", "group": "resource", "lat": -61.737441626253364, "lon": -155.20576305575014, "alt_km": 685.4049649047547, "timestamp": "2025-12-10T11:33:53.048232+00:00", "meta": {"OBJECT_NAME": "VNREDSAT 1", "OBJECT_ID": "2013-021B", "EPOCH": "2025-12-10T03:54:10.337760", "MEAN_MOTION": 14.64916486, "ECCENTRICITY": 0.0001304, "INCLINATION": 97.9372, "RA_OF_ASC_NODE": 39.5275, "ARG_OF_PERICENTER": 78.7836, "MEAN_ANOMALY": 281.3514, "EPHEMERIS_TYPE": 0, "CLASSIFICATION_TYPE": "U", "NORAD_CAT_ID": 39160, "ELEMENT_SET_NO": 999, "REV_AT_EPOCH": 67261, "BSTAR": 0.00017957, "MEAN_MOTION_DOT": 9.15e-06, "MEAN_MOTION_DDOT": 0}, "tle": {"line1": "1 39160U 13021B   25344.16261965  .00000915  00000+0  17957-3 0  9996", "line2": "2 39160  97.9372  39.5275 0001304  78.7836 281.3514 14.64916486672611"}}, "geometry": {"type": "Point", "coordinates": [-155.20576305575014, -61.737441626253364]}}, {"type": "Feature", "properties": {"norad_id": 39227, "name": "ARIRANG-5 (KOMPSAT-5)", "group": "resource", "lat": -0.23145957960420777, "lon": 168.8493438325712, "alt_km": 554.8439230146323, "timestamp": "2025-12-10T11:33:53.048242+00:00", "meta": {"OBJECT_NAME": "ARIRANG-5 (KOMPSAT-5)", "OBJECT_ID": "2013-042A", "EPOCH": "2025-12-10T03:35:04.627104", "MEAN_MOTION": 15.0448483, "ECCENTRICITY": 0.0003903, "INCLINATION": 97.6141, "RA_OF_ASC_NODE": 168.4908, "ARG_OF_PERICENTER": 61.5145, "MEAN_ANOMALY": 298.6473, "EPHEMERIS_TYPE": 0, "CLASSIFICATION_TYPE": "U", "NORAD_CAT_ID": 39227, "ELEMENT_SET_NO": 999, "REV_AT_EPOCH": 67543, "BSTAR": 0.00012496, "MEAN_MOTION_DOT": 1.688e-05, "MEAN_MOTION_DDOT": 0}, "tle": {"line1": "1 39227U 13042A   25344.14935911  .00001688  00000+0  12496-3 0  9991", "line2": "2 39227  97.6141 168.4908 0003903  61.5145 298.6473 15.04484830675437"}}, "geometry": {"type": "Point", "coordinates": [168.8493438325712, -0.23145957960420777]}}, {"type": "Feature", "properties": {"norad_id": 39418, "name": "SKYSAT-A", "group": "resource", "lat": -43.93928104418433, "lon": 41.9642029983738, "alt_km": 533.3582320950645, "timestamp": "2025-12-10T11:33:53.048253+00:00", "meta": {"OBJECT_NAME": "SKYSAT-A", "OBJECT_ID": "2013-066C", "EPOCH": "2025-12-10T02:13:41.984256", "MEAN_MOTION": 15.1157189, "ECCENTRICITY": 0.0020679, "INCLINATION": 97.4109, "RA_OF_ASC_NODE": 34.3815, "ARG_OF_PERICENTER": 246.4285, "MEAN_ANOMALY": 113.4774, "EPHEMERIS_TYPE": 0, "CLASSIFICATION_TYPE": "U", "NORAD_CAT_ID": 39418, "ELEMENT_SET_NO": 999, "REV_AT_EPOCH": 65990, "BSTAR": 0.00034689, "MEAN_MOTION_DOT": 5.852e-05, "MEAN_MOTION_DDOT": 0}, "tle": {"line1": "1 39418U 13066C   25344.09284704  .00005852  00000+0  34689-3 0  9995", "line2": "2 39418  97.4109  34.3815 0020679 246.4285 113.4774 15.11571890659900"}}, "geometry": {"type": "Point", "coordinates": [41.9642029983738, -43.93928104418433]}}, {"type": "Feature", "properties": {"norad_id": 39419, "name": "DUBAISAT-2", "group": "resource", "lat": 55.2893150292444, "lon": 165.84010811063507, "alt_km": 542.9929737948796, "timestamp": "2025-12-10T11:33:53.048263+00:00", "meta": {"OBJECT_NAME": "DUBAISAT-2", "OBJECT_ID": "2013-066D", "EPOCH": "2025-12-10T03:03:22.193280", "MEAN_MOTION": 15.083124, "ECCENTRICITY": 0.0010968, "INCLINATION": 97.445, "RA_OF_ASC_NODE": 334.6152, "ARG_OF_PERICENTER": 330.2823, "MEAN_ANOMALY": 29.7782, "EPHEMERIS_TYPE": 0, "CLASSIFICATION_TYPE": "U", "NORAD_CAT_ID": 39419, "ELEMENT_SET_NO": 999, "REV_AT_EPOCH": 65787, "BSTAR": 0.00033425, "MEAN_MOTION_DOT": 5.132e-05, "MEAN_MOTION_DDOT": 0}, "tle": {"line1": "1 39419U 13066D   25344.12734020  .00005132  00000+0  33425-3 0  9999", "line2": "2 39419  97.4450 334.6152 0010968 330.2823  29.7782 15.08312400657878"}}, "geometry": {"type": "Point", "coordinates": [165.84010811063507, 55.2893150292444]}}]}